start=new Date('2021-12-14T00:00:00.000Z').valueOf();
sats=[{"DECAY_DATE":null,"CENTER_NAME":"EARTH","NORAD_CAT_ID":"47833","FILE":"3238998","LAUNCH_DATE":"2021-03-11","REF_FRAME":"TEME","SEMIMAJOR_AXIS":"6925.351","MEAN_MOTION":"15.06399174","TLE_LINE2":"2 47833  53.0568 357.4841 0001756  59.1121 301.0040 15.06399174 43442","OBJECT_TYPE":"PAYLOAD","REV_AT_EPOCH":"4344","RCS_SIZE":"LARGE","BSTAR":"-0.00000510270000","RA_OF_ASC_NODE":"357.4841","ARG_OF_PERICENTER":"59.1121","EPHEMERIS_TYPE":"0","OBJECT_NAME":"STARLINK-2423","MEAN_MOTION_DDOT":"0.0000000000000","MEAN_ELEMENT_THEORY":"SGP4","MEAN_ANOMALY":"301.0040","TIME_SYSTEM":"UTC","OBJECT_ID":"2021-018AY","GP_ID":"191624927","TLE_LINE1":"1 47833U 21018AY  21347.44300291 -.00000358  00000-0 -51027-5 0  9995","COUNTRY_CODE":"US","ELEMENT_SET_NO":"999","ECCENTRICITY":"0.00017560","PERIOD":"95.592","EPOCH":"2021-12-13T10:37:55.451424","MEAN_MOTION_DOT":"-0.00000358","SITE":"AFETR","INCLINATION":"53.0568","PERIAPSIS":"546.000","APOAPSIS":"548.432","CLASSIFICATION_TYPE":"U"},{"FILE":"3239585","REF_FRAME":"TEME","LAUNCH_DATE":"2021-03-11","SEMIMAJOR_AXIS":"6925.345","DECAY_DATE":null,"CENTER_NAME":"EARTH","NORAD_CAT_ID":"47834","EPHEMERIS_TYPE":"0","RA_OF_ASC_NODE":"356.2390","ARG_OF_PERICENTER":"64.4562","MEAN_MOTION_DDOT":"0.0000000000000","OBJECT_NAME":"STARLINK-2424","MEAN_ELEMENT_THEORY":"SGP4","MEAN_ANOMALY":"295.6601","TLE_LINE2":"2 47834  53.0568 356.2390 0001685  64.4562 295.6601 15.06401274 43488","OBJECT_TYPE":"PAYLOAD","MEAN_MOTION":"15.06401274","REV_AT_EPOCH":"4348","RCS_SIZE":"LARGE","BSTAR":"0.00008863400000","ECCENTRICITY":"0.00016850","PERIOD":"95.592","MEAN_MOTION_DOT":"0.00001039","EPOCH":"2021-12-13T17:16:01.134912","GP_ID":"191660796","OBJECT_ID":"2021-018AZ","TIME_SYSTEM":"UTC","COUNTRY_CODE":"US","TLE_LINE1":"1 47834U 21018AZ  21347.71945758  .00001039  00000-0  88634-4 0  9997","ELEMENT_SET_NO":"999","SITE":"AFETR","INCLINATION":"53.0568","CLASSIFICATION_TYPE":"U","PERIAPSIS":"546.043","APOAPSIS":"548.377"},{"INCLINATION":"53.0538","CLASSIFICATION_TYPE":"U","PERIAPSIS":"546.042","APOAPSIS":"548.388","SITE":"AFETR","MEAN_MOTION_DOT":"0.00000966","EPOCH":"2021-12-13T11:15:42.774048","ECCENTRICITY":"0.00016940","PERIOD":"95.592","ELEMENT_SET_NO":"999","OBJECT_ID":"2021-018BA","GP_ID":"191625429","TIME_SYSTEM":"UTC","COUNTRY_CODE":"US","TLE_LINE1":"1 47835U 21018BA  21347.46924507  .00000966  00000-0  83775-4 0  9998","OBJECT_NAME":"STARLINK-2425","MEAN_MOTION_DDOT":"0.0000000000000","MEAN_ANOMALY":"299.7606","MEAN_ELEMENT_THEORY":"SGP4","EPHEMERIS_TYPE":"0","ARG_OF_PERICENTER":"60.3551","RA_OF_ASC_NODE":"2.3805","BSTAR":"0.00008377500000","TLE_LINE2":"2 47835  53.0538   2.3805 0001694  60.3551 299.7606 15.06399609 43319","OBJECT_TYPE":"PAYLOAD","MEAN_MOTION":"15.06399609","RCS_SIZE":"LARGE","REV_AT_EPOCH":"4331","REF_FRAME":"TEME","LAUNCH_DATE":"2021-03-11","SEMIMAJOR_AXIS":"6925.350","FILE":"3238998","CENTER_NAME":"EARTH","NORAD_CAT_ID":"47835","DECAY_DATE":null},{"DECAY_DATE":null,"NORAD_CAT_ID":"47836","CENTER_NAME":"EARTH","FILE":"3239585","SEMIMAJOR_AXIS":"6925.346","LAUNCH_DATE":"2021-03-11","REF_FRAME":"TEME","REV_AT_EPOCH":"4343","RCS_SIZE":"LARGE","MEAN_MOTION":"15.06400790","TLE_LINE2":"2 47836  53.0578 356.1841 0001816  52.3075 307.8078 15.06400790 43433","OBJECT_TYPE":"PAYLOAD","BSTAR":"0.00008247800000","RA_OF_ASC_NODE":"356.1841","ARG_OF_PERICENTER":"52.3075","EPHEMERIS_TYPE":"0","MEAN_ANOMALY":"307.8078","MEAN_ELEMENT_THEORY":"SGP4","MEAN_MOTION_DDOT":"0.0000000000000","OBJECT_NAME":"STARLINK-2426","TLE_LINE1":"1 47836U 21018BB  21347.72956381  .00000947  00000-0  82478-4 0  9991","COUNTRY_CODE":"US","TIME_SYSTEM":"UTC","GP_ID":"191659294","OBJECT_ID":"2021-018BB","ELEMENT_SET_NO":"999","PERIOD":"95.592","ECCENTRICITY":"0.00018160","EPOCH":"2021-12-13T17:30:34.313184","MEAN_MOTION_DOT":"0.00000947","SITE":"AFETR","PERIAPSIS":"545.953","APOAPSIS":"548.469","CLASSIFICATION_TYPE":"U","INCLINATION":"53.0578"},{"DECAY_DATE":null,"NORAD_CAT_ID":"47837","CENTER_NAME":"EARTH","FILE":"3239585","SEMIMAJOR_AXIS":"6925.335","REF_FRAME":"TEME","LAUNCH_DATE":"2021-03-11","RCS_SIZE":"LARGE","REV_AT_EPOCH":"4375","OBJECT_TYPE":"PAYLOAD","TLE_LINE2":"2 47837  53.0565 335.2286 0001933  55.3245 304.7926 15.06404494 43751","MEAN_MOTION":"15.06404494","BSTAR":"0.00009791700000","EPHEMERIS_TYPE":"0","ARG_OF_PERICENTER":"55.3245","RA_OF_ASC_NODE":"335.2286","MEAN_ANOMALY":"304.7926","MEAN_ELEMENT_THEORY":"SGP4","OBJECT_NAME":"STARLINK-2427","MEAN_MOTION_DDOT":"0.0000000000000","COUNTRY_CODE":"US","TLE_LINE1":"1 47837U 21018BC  21347.94613505  .00001177  00000-0  97917-4 0  9994","GP_ID":"191660544","OBJECT_ID":"2021-018BC","TIME_SYSTEM":"UTC","ELEMENT_SET_NO":"999","PERIOD":"95.592","ECCENTRICITY":"0.00019330","MEAN_MOTION_DOT":"0.00001177","EPOCH":"2021-12-13T22:42:26.068320","SITE":"AFETR","CLASSIFICATION_TYPE":"U","PERIAPSIS":"545.861","APOAPSIS":"548.538","INCLINATION":"53.0565"},{"MEAN_MOTION_DOT":"0.00001119","EPOCH":"2021-12-13T18:14:23.983584","ECCENTRICITY":"0.00017730","PERIOD":"95.592","ELEMENT_SET_NO":"999","GP_ID":"191660297","OBJECT_ID":"2021-018BD","TIME_SYSTEM":"UTC","COUNTRY_CODE":"US","TLE_LINE1":"1 47838U 21018BD  21347.75999981  .00001119  00000-0  94028-4 0  9995","INCLINATION":"53.0557","CLASSIFICATION_TYPE":"U","APOAPSIS":"548.439","PERIAPSIS":"545.984","SITE":"AFETR","REF_FRAME":"TEME","LAUNCH_DATE":"2021-03-11","SEMIMAJOR_AXIS":"6925.346","FILE":"3239585","CENTER_NAME":"EARTH","NORAD_CAT_ID":"47838","DECAY_DATE":null,"MEAN_MOTION_DDOT":"0.0000000000000","OBJECT_NAME":"STARLINK-2429","MEAN_ELEMENT_THEORY":"SGP4","MEAN_ANOMALY":"302.3586","EPHEMERIS_TYPE":"0","RA_OF_ASC_NODE":"356.0591","ARG_OF_PERICENTER":"57.7575","BSTAR":"0.00009402800000","TLE_LINE2":"2 47838  53.0557 356.0591 0001773  57.7575 302.3586 15.06400704 43438","OBJECT_TYPE":"PAYLOAD","MEAN_MOTION":"15.06400704","RCS_SIZE":"LARGE","REV_AT_EPOCH":"4343"},{"FILE":"3239585","REF_FRAME":"TEME","LAUNCH_DATE":"2021-03-11","SEMIMAJOR_AXIS":"6925.363","DECAY_DATE":null,"CENTER_NAME":"EARTH","NORAD_CAT_ID":"47839","EPHEMERIS_TYPE":"0","ARG_OF_PERICENTER":"44.2936","RA_OF_ASC_NODE":"325.3301","MEAN_MOTION_DDOT":"0.0000000000000","OBJECT_NAME":"STARLINK-2431","MEAN_ELEMENT_THEORY":"SGP4","MEAN_ANOMALY":"315.8248","OBJECT_TYPE":"PAYLOAD","TLE_LINE2":"2 47839  53.0542 325.3301 0002440  44.2936 315.8248 15.06395295 43897","MEAN_MOTION":"15.06395295","REV_AT_EPOCH":"4389","RCS_SIZE":"LARGE","BSTAR":"-0.00003614400000","ECCENTRICITY":"0.00024400","PERIOD":"95.592","MEAN_MOTION_DOT":"-0.00000820","EPOCH":"2021-12-13T22:06:36.984960","OBJECT_ID":"2021-018BE","GP_ID":"191659543","TIME_SYSTEM":"UTC","COUNTRY_CODE":"US","TLE_LINE1":"1 47839U 21018BE  21347.92126140 -.00000820  00000-0 -36144-4 0  9999","ELEMENT_SET_NO":"999","SITE":"AFETR","INCLINATION":"53.0542","CLASSIFICATION_TYPE":"U","APOAPSIS":"548.918","PERIAPSIS":"545.538"},{"COUNTRY_CODE":"US","TLE_LINE1":"1 47840U 21018BF  21347.66600992 -.00000447  00000-0 -11097-4 0  9999","OBJECT_ID":"2021-018BF","GP_ID":"191659794","TIME_SYSTEM":"UTC","ELEMENT_SET_NO":"999","PERIOD":"95.592","ECCENTRICITY":"0.00019660","MEAN_MOTION_DOT":"-0.00000447","EPOCH":"2021-12-13T15:59:03.257088","SITE":"AFETR","CLASSIFICATION_TYPE":"U","APOAPSIS":"548.578","PERIAPSIS":"545.854","INCLINATION":"53.0563","DECAY_DATE":null,"NORAD_CAT_ID":"47840","CENTER_NAME":"EARTH","FILE":"3239585","SEMIMAJOR_AXIS":"6925.351","REF_FRAME":"TEME","LAUNCH_DATE":"2021-03-11","REV_AT_EPOCH":"4370","RCS_SIZE":"LARGE","TLE_LINE2":"2 47840  53.0563 336.4701 0001966  50.4378 309.6784 15.06399206 43702","OBJECT_TYPE":"PAYLOAD","MEAN_MOTION":"15.06399206","BSTAR":"-0.00001109700000","EPHEMERIS_TYPE":"0","RA_OF_ASC_NODE":"336.4701","ARG_OF_PERICENTER":"50.4378","MEAN_ELEMENT_THEORY":"SGP4","MEAN_ANOMALY":"309.6784","MEAN_MOTION_DDOT":"0.0000000000000","OBJECT_NAME":"STARLINK-2432"},{"PERIOD":"95.592","ECCENTRICITY":"0.00017840","MEAN_MOTION_DOT":"-0.00000621","EPOCH":"2021-12-13T09:31:35.158080","COUNTRY_CODE":"US","TLE_LINE1":"1 47841U 21018BG  21347.39693470 -.00000621  00000-0 -22811-4 0  9993","OBJECT_ID":"2021-018BG","GP_ID":"191624928","TIME_SYSTEM":"UTC","ELEMENT_SET_NO":"999","SITE":"AFETR","CLASSIFICATION_TYPE":"U","PERIAPSIS":"545.984","APOAPSIS":"548.455","INCLINATION":"53.0559","FILE":"3238998","SEMIMAJOR_AXIS":"6925.354","REF_FRAME":"TEME","LAUNCH_DATE":"2021-03-11","DECAY_DATE":null,"NORAD_CAT_ID":"47841","CENTER_NAME":"EARTH","EPHEMERIS_TYPE":"0","ARG_OF_PERICENTER":"59.2432","RA_OF_ASC_NODE":"337.6762","MEAN_ANOMALY":"300.8732","MEAN_ELEMENT_THEORY":"SGP4","MEAN_MOTION_DDOT":"0.0000000000000","OBJECT_NAME":"STARLINK-2433","REV_AT_EPOCH":"4366","RCS_SIZE":"LARGE","TLE_LINE2":"2 47841  53.0559 337.6762 0001784  59.2432 300.8732 15.06398214 43663","OBJECT_TYPE":"PAYLOAD","MEAN_MOTION":"15.06398214","BSTAR":"-0.00002281100000"},{"PERIOD":"95.592","ECCENTRICITY":"0.00017010","MEAN_MOTION_DOT":"0.00001548","EPOCH":"2021-12-13T18:44:54.972384","COUNTRY_CODE":"US","TLE_LINE1":"1 47842U 21018BH  21347.78119181  .00001548  00000-0  12279-3 0  9992","GP_ID":"191660797","OBJECT_ID":"2021-018BH","TIME_SYSTEM":"UTC","ELEMENT_SET_NO":"999","SITE":"AFETR","CLASSIFICATION_TYPE":"U","PERIAPSIS":"546.028","APOAPSIS":"548.384","INCLINATION":"53.0573","FILE":"3239585","SEMIMAJOR_AXIS":"6925.341","REF_FRAME":"TEME","LAUNCH_DATE":"2021-03-11","DECAY_DATE":null,"NORAD_CAT_ID":"47842","CENTER_NAME":"EARTH","EPHEMERIS_TYPE":"0","ARG_OF_PERICENTER":"62.2153","RA_OF_ASC_NODE":"5.9677","MEAN_ELEMENT_THEORY":"SGP4","MEAN_ANOMALY":"297.9008","MEAN_MOTION_DDOT":"0.0000000000000","OBJECT_NAME":"STARLINK-2434","RCS_SIZE":"LARGE","REV_AT_EPOCH":"4335","OBJECT_TYPE":"PAYLOAD","TLE_LINE2":"2 47842  53.0573   5.9677 0001701  62.2153 297.9008 15.06402572 43354","MEAN_MOTION":"15.06402572","BSTAR":"0.00012279000000"}];
